{
  "norad_id": 44885,
  "name": "FLORIPASAT-1",
  "history": [
    {
      "epoch": "2026-03-28T21:25:15.365280Z",
      "apogee_km": 565.7748454377543,
      "perigee_km": 549.7878311047716,
      "latitude_deg": 7.491182719626326e-05,
      "longitude_deg": 33.988705356363994,
      "height_km": 553.0585456104558,
      "semi_major_axis_km": 6935.918338271263,
      "eccentricity": 0.00115248,
      "inclination_deg": 97.7867,
      "raan_deg": 181.6092,
      "arg_perigee_deg": 346.7469,
      "mean_anomaly_deg": 13.3452,
      "mean_motion_rev_day": 15.02957864
    },
    {
      "epoch": "2026-03-29T05:24:36.408960Z",
      "apogee_km": 565.7148213401297,
      "perigee_km": 549.8011039378507,
      "latitude_deg": 3.940371307459493e-05,
      "longitude_deg": -85.84277565675727,
      "height_km": 553.1242967115624,
      "semi_major_axis_km": 6935.89496263899,
      "eccentricity": 0.0011472,
      "inclination_deg": 97.7869,
      "raan_deg": 181.9435,
      "arg_perigee_deg": 345.1707,
      "mean_anomaly_deg": 14.918,
      "mean_motion_rev_day": 15.02965462
    }
  ]
}